SL-16 R/B               
1 22566U 93016B   26027.78708735  .00000367  00000+0  21298-3 0  9992
2 22566  71.0087 301.0921 0009474  13.4303 346.7070 14.15300019696383
COSMOS 2242             
1 22626U 93024A   26027.71390501  .00004072  00000+0  35644-3 0  9996
2 22626  82.5208 305.9017 0018070  83.1724 277.1553 14.96360803774267
SL-16 R/B               
1 22803U 93059B   26027.61028075 -.00000134  00000+0 -42458-4 0  9993
2 22803  70.9902  97.7593 0019583 272.4649  87.4233 14.17223388673714
ARIANE 40 R/B           
1 22830U 93061H   26027.63794575  .00000425  00000+0  17159-3 0  9993
2 22830  98.5003  97.3177 0011477  50.1965 310.0228 14.32837817688228
COSMOS 2278             
1 23087U 94023A   26027.64843419 -.00000117  00000+0 -36570-4 0  9999
2 23087  71.0524 260.9642 0006277  91.3249 268.8593 14.14366893639004
SL-16 R/B               
1 23088U 94023B   26027.78421655 -.00000158  00000+0 -56856-4 0  9993
2 23088  71.0003 156.7923 0004242 322.8063  37.2765 14.15006410640308
SL-16 R/B               
1 23343U 94074B   26027.82643194  .00000851  00000+0  12090-3 0  9991
2 23343  97.7160  60.2901 0006630   7.5635 165.9885 14.79355944681206
SL-16 R/B               
1 23405U 94077B   26027.56981135 -.00000171  00000+0 -62682-4 0  9994
2 23405  70.9825  79.0000 0004781 249.1559 110.9052 14.15558539610414
ARIANE 40+ R/B          
1 23561U 95021B   26027.62487705  .00000522  00000+0  18060-3 0  9996
2 23561  98.4578  99.6462 0005624 263.0521 258.6013 14.39739895613331
SL-16 R/B               
1 23705U 95058B   26027.64543855 -.00000127  00000+0 -40612-4 0  9999
2 23705  71.0197 266.4278 0012978 192.2288 167.8522 14.15488034562044
SL-16 R/B               
1 24298U 96051B   26027.59376099  .00000072  00000+0  65807-4 0  9999
2 24298  70.7573 262.2264 0018344 204.4279 155.5973 14.12404050515847
ORBVIEW 2 (SEASTAR)     
1 24883U 97037A   26027.92051927  .00000511  00000+0  19416-3 0  9993
2 24883  98.8498 191.1684 0002471 157.6895 202.4397 14.35460749502623
