CCSDS_OMM_VERS = 2.0
CREATION_DATE  = 
ORIGINATOR     = 

OBJECT_NAME    = SL-16 R/B
OBJECT_ID      = 1993-016B
CENTER_NAME    = EARTH
REF_FRAME      = TEME
TIME_SYSTEM    = UTC
MEAN_ELEMENT_THEORY = SGP/SGP4

EPOCH          = 2026-01-27T18:53:24.347040
MEAN_MOTION    = 14.15300019
ECCENTRICITY   = .00094747
INCLINATION    = 71.0087
RA_OF_ASC_NODE = 301.0921
ARG_OF_PERICENTER = 13.4303
MEAN_ANOMALY   = 346.7070

EPHEMERIS_TYPE = 0
CLASSIFICATION_TYPE = U
NORAD_CAT_ID   = 22566
ELEMENT_SET_NO = 999
REV_AT_EPOCH   = 69638
BSTAR          = .21297863E-3
MEAN_MOTION_DOT = .367E-5
MEAN_MOTION_DDOT = 0

CCSDS_OMM_VERS = 2.0
CREATION_DATE  = 
ORIGINATOR     = 

OBJECT_NAME    = COSMOS 2242
OBJECT_ID      = 1993-024A
CENTER_NAME    = EARTH
REF_FRAME      = TEME
TIME_SYSTEM    = UTC
MEAN_ELEMENT_THEORY = SGP/SGP4

EPOCH          = 2026-01-27T17:08:01.392864
MEAN_MOTION    = 14.96360803
ECCENTRICITY   = .00180702
INCLINATION    = 82.5208
RA_OF_ASC_NODE = 305.9017
ARG_OF_PERICENTER = 83.1724
MEAN_ANOMALY   = 277.1553

EPHEMERIS_TYPE = 0
CLASSIFICATION_TYPE = U
NORAD_CAT_ID   = 22626
ELEMENT_SET_NO = 999
REV_AT_EPOCH   = 77426
BSTAR          = .35643725E-3
MEAN_MOTION_DOT = .4072E-4
MEAN_MOTION_DDOT = 0

CCSDS_OMM_VERS = 2.0
CREATION_DATE  = 
ORIGINATOR     = 

OBJECT_NAME    = SL-16 R/B
OBJECT_ID      = 1993-059B
CENTER_NAME    = EARTH
REF_FRAME      = TEME
TIME_SYSTEM    = UTC
MEAN_ELEMENT_THEORY = SGP/SGP4

EPOCH          = 2026-01-27T14:38:48.256800
MEAN_MOTION    = 14.17223388
ECCENTRICITY   = .0019583
INCLINATION    = 70.9902
RA_OF_ASC_NODE = 97.7593
ARG_OF_PERICENTER = 272.4649
MEAN_ANOMALY   = 87.4233

EPHEMERIS_TYPE = 0
CLASSIFICATION_TYPE = U
NORAD_CAT_ID   = 22803
ELEMENT_SET_NO = 999
REV_AT_EPOCH   = 67371
BSTAR          = -.42458E-4
MEAN_MOTION_DOT = -.134E-5
MEAN_MOTION_DDOT = 0

CCSDS_OMM_VERS = 2.0
CREATION_DATE  = 
ORIGINATOR     = 

OBJECT_NAME    = ARIANE 40 R/B
OBJECT_ID      = 1993-061H
CENTER_NAME    = EARTH
REF_FRAME      = TEME
TIME_SYSTEM    = UTC
MEAN_ELEMENT_THEORY = SGP/SGP4

EPOCH          = 2026-01-27T15:18:38.512800
MEAN_MOTION    = 14.32837817
ECCENTRICITY   = .0011477
INCLINATION    = 98.5003
RA_OF_ASC_NODE = 97.3177
ARG_OF_PERICENTER = 50.1965
MEAN_ANOMALY   = 310.0228

EPHEMERIS_TYPE = 0
CLASSIFICATION_TYPE = U
NORAD_CAT_ID   = 22830
ELEMENT_SET_NO = 999
REV_AT_EPOCH   = 68822
BSTAR          = .17159E-3
MEAN_MOTION_DOT = .425E-5
MEAN_MOTION_DDOT = 0

CCSDS_OMM_VERS = 2.0
CREATION_DATE  = 
ORIGINATOR     = 

OBJECT_NAME    = COSMOS 2278
OBJECT_ID      = 1994-023A
CENTER_NAME    = EARTH
REF_FRAME      = TEME
TIME_SYSTEM    = UTC
MEAN_ELEMENT_THEORY = SGP/SGP4

EPOCH          = 2026-01-27T15:33:44.714016
MEAN_MOTION    = 14.14366893
ECCENTRICITY   = .0006277
INCLINATION    = 71.0524
RA_OF_ASC_NODE = 260.9642
ARG_OF_PERICENTER = 91.3249
MEAN_ANOMALY   = 268.8593

EPHEMERIS_TYPE = 0
CLASSIFICATION_TYPE = U
NORAD_CAT_ID   = 23087
ELEMENT_SET_NO = 999
REV_AT_EPOCH   = 63900
BSTAR          = -.3657E-4
MEAN_MOTION_DOT = -.117E-5
MEAN_MOTION_DDOT = 0

CCSDS_OMM_VERS = 2.0
CREATION_DATE  = 
ORIGINATOR     = 

OBJECT_NAME    = SL-16 R/B
OBJECT_ID      = 1994-023B
CENTER_NAME    = EARTH
REF_FRAME      = TEME
TIME_SYSTEM    = UTC
MEAN_ELEMENT_THEORY = SGP/SGP4

EPOCH          = 2026-01-27T18:49:16.309920
MEAN_MOTION    = 14.15006410
ECCENTRICITY   = .00042421
INCLINATION    = 71.0003
RA_OF_ASC_NODE = 156.7923
ARG_OF_PERICENTER = 322.8063
MEAN_ANOMALY   = 37.2765

EPHEMERIS_TYPE = 0
CLASSIFICATION_TYPE = U
NORAD_CAT_ID   = 23088
ELEMENT_SET_NO = 999
REV_AT_EPOCH   = 64030
BSTAR          = -.56856052E-4
MEAN_MOTION_DOT = -.158E-5
MEAN_MOTION_DDOT = 0

CCSDS_OMM_VERS = 2.0
CREATION_DATE  = 
ORIGINATOR     = 

OBJECT_NAME    = SL-16 R/B
OBJECT_ID      = 1994-074B
CENTER_NAME    = EARTH
REF_FRAME      = TEME
TIME_SYSTEM    = UTC
MEAN_ELEMENT_THEORY = SGP/SGP4

EPOCH          = 2026-01-27T19:50:03.719616
MEAN_MOTION    = 14.79355944
ECCENTRICITY   = .00066309
INCLINATION    = 97.7160
RA_OF_ASC_NODE = 60.2901
ARG_OF_PERICENTER = 7.5635
MEAN_ANOMALY   = 165.9885

EPHEMERIS_TYPE = 0
CLASSIFICATION_TYPE = U
NORAD_CAT_ID   = 23343
ELEMENT_SET_NO = 999
REV_AT_EPOCH   = 68120
BSTAR          = .12090438E-3
MEAN_MOTION_DOT = .851E-5
MEAN_MOTION_DDOT = 0

CCSDS_OMM_VERS = 2.0
CREATION_DATE  = 
ORIGINATOR     = 

OBJECT_NAME    = SL-16 R/B
OBJECT_ID      = 1994-077B
CENTER_NAME    = EARTH
REF_FRAME      = TEME
TIME_SYSTEM    = UTC
MEAN_ELEMENT_THEORY = SGP/SGP4

EPOCH          = 2026-01-27T13:40:31.700640
MEAN_MOTION    = 14.15558539
ECCENTRICITY   = .0004781
INCLINATION    = 70.9825
RA_OF_ASC_NODE = 79.0000
ARG_OF_PERICENTER = 249.1559
MEAN_ANOMALY   = 110.9052

EPHEMERIS_TYPE = 0
CLASSIFICATION_TYPE = U
NORAD_CAT_ID   = 23405
ELEMENT_SET_NO = 999
REV_AT_EPOCH   = 61041
BSTAR          = -.62682E-4
MEAN_MOTION_DOT = -.171E-5
MEAN_MOTION_DDOT = 0

CCSDS_OMM_VERS = 2.0
CREATION_DATE  = 
ORIGINATOR     = 

OBJECT_NAME    = ARIANE 40+ R/B
OBJECT_ID      = 1995-021B
CENTER_NAME    = EARTH
REF_FRAME      = TEME
TIME_SYSTEM    = UTC
MEAN_ELEMENT_THEORY = SGP/SGP4

EPOCH          = 2026-01-27T14:59:49.377120
MEAN_MOTION    = 14.39739895
ECCENTRICITY   = .0005624
INCLINATION    = 98.4578
RA_OF_ASC_NODE = 99.6462
ARG_OF_PERICENTER = 263.0521
MEAN_ANOMALY   = 258.6013

EPHEMERIS_TYPE = 0
CLASSIFICATION_TYPE = U
NORAD_CAT_ID   = 23561
ELEMENT_SET_NO = 999
REV_AT_EPOCH   = 61333
BSTAR          = .1806E-3
MEAN_MOTION_DOT = .522E-5
MEAN_MOTION_DDOT = 0

CCSDS_OMM_VERS = 2.0
CREATION_DATE  = 
ORIGINATOR     = 

OBJECT_NAME    = SL-16 R/B
OBJECT_ID      = 1995-058B
CENTER_NAME    = EARTH
REF_FRAME      = TEME
TIME_SYSTEM    = UTC
MEAN_ELEMENT_THEORY = SGP/SGP4

EPOCH          = 2026-01-27T15:29:25.890720
MEAN_MOTION    = 14.15488034
ECCENTRICITY   = .0012978
INCLINATION    = 71.0197
RA_OF_ASC_NODE = 266.4278
ARG_OF_PERICENTER = 192.2288
MEAN_ANOMALY   = 167.8522

EPHEMERIS_TYPE = 0
CLASSIFICATION_TYPE = U
NORAD_CAT_ID   = 23705
ELEMENT_SET_NO = 999
REV_AT_EPOCH   = 56204
BSTAR          = -.40612E-4
MEAN_MOTION_DOT = -.127E-5
MEAN_MOTION_DDOT = 0

CCSDS_OMM_VERS = 2.0
CREATION_DATE  = 
ORIGINATOR     = 

OBJECT_NAME    = SL-16 R/B
OBJECT_ID      = 1996-051B
CENTER_NAME    = EARTH
REF_FRAME      = TEME
TIME_SYSTEM    = UTC
MEAN_ELEMENT_THEORY = SGP/SGP4

EPOCH          = 2026-01-27T14:15:00.949536
MEAN_MOTION    = 14.12404050
ECCENTRICITY   = .0018344
INCLINATION    = 70.7573
RA_OF_ASC_NODE = 262.2264
ARG_OF_PERICENTER = 204.4279
MEAN_ANOMALY   = 155.5973

EPHEMERIS_TYPE = 0
CLASSIFICATION_TYPE = U
NORAD_CAT_ID   = 24298
ELEMENT_SET_NO = 999
REV_AT_EPOCH   = 51584
BSTAR          = .65807E-4
MEAN_MOTION_DOT = .72E-6
MEAN_MOTION_DDOT = 0

CCSDS_OMM_VERS = 2.0
CREATION_DATE  = 
ORIGINATOR     = 

OBJECT_NAME    = ORBVIEW 2 (SEASTAR)
OBJECT_ID      = 1997-037A
CENTER_NAME    = EARTH
REF_FRAME      = TEME
TIME_SYSTEM    = UTC
MEAN_ELEMENT_THEORY = SGP/SGP4

EPOCH          = 2026-01-27T22:05:32.864928
MEAN_MOTION    = 14.35460749
ECCENTRICITY   = .00024719
INCLINATION    = 98.8498
RA_OF_ASC_NODE = 191.1684
ARG_OF_PERICENTER = 157.6895
MEAN_ANOMALY   = 202.4397

EPHEMERIS_TYPE = 0
CLASSIFICATION_TYPE = U
NORAD_CAT_ID   = 24883
ELEMENT_SET_NO = 999
REV_AT_EPOCH   = 50262
BSTAR          = .19415501E-3
MEAN_MOTION_DOT = .511E-5
MEAN_MOTION_DDOT = 0

